[{"OBJECT_NAME":"GHGSAT-C13","OBJECT_ID":"2025-135W","EPOCH":"2026-03-09T21:19:51.572640","MEAN_MOTION":15.20248668,"ECCENTRICITY":0.00027022,"INCLINATION":97.4646,"RA_OF_ASC_NODE":185.1231,"ARG_OF_PERICENTER":97.1001,"MEAN_ANOMALY":263.0541,"EPHEMERIS_TYPE":0,"CLASSIFICATION_TYPE":"U","NORAD_CAT_ID":64548,"ELEMENT_SET_NO":999,"REV_AT_EPOCH":3976,"BSTAR":0.00021160273,"MEAN_MOTION_DOT":4.522e-5,"MEAN_MOTION_DDOT":0},{"OBJECT_NAME":"FLOCK 4H-33","OBJECT_ID":"2025-276BY","EPOCH":"2026-03-09T18:09:06.535296","MEAN_MOTION":15.19689011,"ECCENTRICITY":9.559e-5,"INCLINATION":97.4288,"RA_OF_ASC_NODE":144.1705,"ARG_OF_PERICENTER":288.4074,"MEAN_ANOMALY":71.7057,"EPHEMERIS_TYPE":0,"CLASSIFICATION_TYPE":"U","NORAD_CAT_ID":66736,"ELEMENT_SET_NO":999,"REV_AT_EPOCH":1533,"BSTAR":0.00040674179,"MEAN_MOTION_DOT":8.618e-5,"MEAN_MOTION_DDOT":0}]
